STARLINK-6356
1 57363U 23099AM  26090.83335647  .00028286  00000+0  15750-2 0  9998
2 57363  42.9998 115.3007 0001243 282.8093 354.7056 15.13126052  5771
STARLINK-6338
1 57364U 23099AN  26090.83335647  .00046596  00000+0  25563-2 0  9996
2 57364  42.9997 115.3114 0001734 249.9442  20.1476 15.13450545  5819
